[{"OBJECT_NAME":"STARLINK-5707","OBJECT_ID":"2023-083D","EPOCH":"2026-03-09T08:07:19.397280","MEAN_MOTION":15.02539003,"ECCENTRICITY":0.00018288,"INCLINATION":43.0047,"RA_OF_ASC_NODE":84.0238,"ARG_OF_PERICENTER":268.9861,"MEAN_ANOMALY":91.0772,"EPHEMERIS_TYPE":0,"CLASSIFICATION_TYPE":"U","NORAD_CAT_ID":56879,"ELEMENT_SET_NO":999,"REV_AT_EPOCH":15161,"BSTAR":2.8929964e-5,"MEAN_MOTION_DOT":1.87e-6,"MEAN_MOTION_DDOT":0},{"OBJECT_NAME":"CZ-4B DEB","OBJECT_ID":"2008-053K","EPOCH":"2026-03-03T06:56:31.900704","MEAN_MOTION":15.04681815,"ECCENTRICITY":0.00115476,"INCLINATION":97.843,"RA_OF_ASC_NODE":88.8262,"ARG_OF_PERICENTER":63.9062,"MEAN_ANOMALY":296.3351,"EPHEMERIS_TYPE":0,"CLASSIFICATION_TYPE":"U","NORAD_CAT_ID":36289,"ELEMENT_SET_NO":999,"REV_AT_EPOCH":93214,"BSTAR":0.00025594062,"MEAN_MOTION_DOT":3.541e-5,"MEAN_MOTION_DDOT":0}]
